IRIDIUM 116             
1 43072U 17083C   24227.90229998 -.00000129  00000+0 -53185-4 0  9999
2 43072  86.3929 242.5120 0002090  90.4520 269.6916 14.34217079347957
IRIDIUM 130             
1 43073U 17083D   24227.59151854  .00000058  00000+0  13537-4 0  9996
2 43073  86.3935 242.8521 0002246  88.8797 271.2656 14.34217672347851
IRIDIUM 151             
1 43074U 17083E   24227.91498900  .00000103  00000+0  29745-4 0  9998
2 43074  86.3929 242.5492 0002344  96.0684 264.0779 14.34218667347923
IRIDIUM 134             
1 43075U 17083F   24227.95304491 -.00000009  00000+0 -10104-4 0  9990
2 43075  86.3933 242.5324 0001996  86.9571 273.1853 14.34215957347897
IRIDIUM 137             
1 43076U 17083G   24228.03549477 -.00000051  00000+0 -25321-4 0  9990
2 43076  86.3932 242.5767 0001964 104.3344 255.8070 14.34217912347976
IRIDIUM 141             
1 43077U 17083H   24227.88962018  .00000144  00000+0  44259-4 0  9995
2 43077  86.3927 242.5069 0002465  89.7170 270.4309 14.34216573347954
IRIDIUM 153             
1 43078U 17083J   24227.91156426  .00000206  00000+0  66350-4 0  9993
2 43078  86.3980 210.9806 0002920  88.0926 272.0604 14.34219821349068
IRIDIUM 131             
1 43079U 17083K   24228.08623775  .00000165  00000+0  51889-4 0  9994
2 43079  86.3933 242.5657 0002257  95.4200 264.7253 14.34218996347914
